ONEWEB-0549             
1 56051U 23043F   25029.55687648  .00000062  00000+0  11780-3 0  9993
2 56051  87.9338 344.3427 0002114  91.6157 268.5219 13.21824883 92601
ONEWEB-0550             
1 56052U 23043G   25030.14983382  .00000181  00000+0  40586-3 0  9993
2 56052  87.9333 344.2247 0001726  81.7603 278.3727 13.21821694 92688
ONEWEB-0551             
1 56053U 23043H   25029.65572554  .00000067  00000+0  14421-3 0  9995
2 56053  87.9097 359.4987 0001891  90.9439 269.1908 13.15550632 90194
ONEWEB-0552             
1 56054U 23043J   25029.84072761  .00000047  00000+0  82738-4 0  9997
2 56054  87.9334 344.2952 0001680  89.5505 270.5821 13.21828643 91735
ONEWEB-0553             
1 56055U 23043K   25029.77806730 -.00000050  00000+0 -16431-3 0  9993
2 56055  87.9130 329.0917 0002036  71.5696 288.5656 13.16595987 92732
ONEWEB-0554             
1 56056U 23043L   25029.53741520 -.00000017  00000+0 -79209-4 0  9999
2 56056  87.9130 329.1671 0001158  77.8223 282.3037 13.16595424 92685
ONEWEB-0555             
1 56057U 23043M   25029.80339898  .00000038  00000+0  65242-4 0  9994
2 56057  87.9126 329.0814 0002017  59.1272 301.0057 13.16595324 92726
ONEWEB-0557             
1 56058U 23043N   25029.81765136  .00000134  00000+0  31743-3 0  9999
2 56058  87.9125 329.1025 0001635  49.8214 310.3060 13.16595964 92725
